*******************************************************************************
 Revised: April 12, 2021                 Earth                              399
 
 GEOPHYSICAL PROPERTIES (revised May 9, 2022):
  Vol. Mean Radius (km)    = 6371.01+-0.02   Mass x10^24 (kg)= 5.97219+-0.0006
  Equ. radius, km          = 6378.137        Mass layers:
  Polar axis, km           = 6356.752          Atmos         = 5.1   x 10^18 kg
  Flattening               = 1/298.257223563   oceans        = 1.4   x 10^21 kg
  Density, g/cm^3          = 5.51              crust         = 2.6   x 10^22 kg
  J2 (IERS 2010)           = 0.00108262545     mantle        = 4.043 x 10^24 kg
  g_p, m/s^2  (polar)      = 9.8321863685      outer core    = 1.835 x 10^24 kg
  g_e, m/s^2  (equatorial) = 9.7803267715      inner core    = 9.675 x 10^22 kg
  g_o, m/s^2               = 9.82022         Fluid core rad  = 3480 km
  GM, km^3/s^2             = 398600.435436   Inner core rad  = 1215 km
  GM 1-sigma, km^3/s^2     =      0.0014     Escape velocity = 11.186 km/s
  Rot. Rate (rad/s)        = 0.00007292115   Surface area:
  Mean sidereal day, hr    = 23.9344695944     land          = 1.48 x 10^8 km
  Mean solar day 2000.0, s = 86400.002         sea           = 3.62 x 10^8 km
  Mean solar day 1820.0, s = 86400.0         Love no., k2    = 0.299
  Moment of inertia        = 0.3308          Atm. pressure   = 1.0 bar
  Mean surface temp (Ts), K= 287.6           Volume, km^3    = 1.08321 x 10^12
  Mean effect. temp (Te), K= 255             Magnetic moment = 0.61 gauss Rp^3
  Geometric albedo         = 0.367           Vis. mag. V(1,0)= -3.86
  Solar Constant (W/m^2)   = 1367.6 (mean), 1414 (perihelion), 1322 (aphelion)
 HELIOCENTRIC ORBIT CHARACTERISTICS:
  Obliquity to orbit, deg  = 23.4392911  Sidereal orb period  = 1.0000174 y
  Orbital speed, km/s      = 29.79       Sidereal orb period  = 365.25636 d
  Mean daily motion, deg/d = 0.9856474   Hill's sphere radius = 234.9       
*******************************************************************************


*******************************************************************************
Ephemeris / WWW_USER Thu Apr  9 13:25:32 2026 Pasadena, USA      / Horizons
*******************************************************************************
Target body name: Earth (399)                     {source: DE441}
Center body name: Sun (10)                        {source: DE441}
Center-site name: BODY CENTER
*******************************************************************************
Start time      : A.D. 2004-Mar-02 09:28:00.0000 TDB
Stop  time      : A.D. 2016-Oct-05 00:01:07.0000 TDB
Step-size       : 1440 minutes
*******************************************************************************
Center geodetic : 0.0, 0.0, 0.0                   {E-lon(deg),Lat(deg),Alt(km)}
Center cylindric: 0.0, 0.0, 0.0                   {E-lon(deg),Dxy(km),Dz(km)}
Center radii    : 695700.0, 695700.0, 695700.0 km {Equator_a, b, pole_c}
Output units    : KM-S
Calendar mode   : Mixed Julian/Gregorian
Output type     : GEOMETRIC cartesian states
Output format   : 3 (position, velocity, LT, range, range-rate)
Reference frame : Ecliptic of J2000.0
*******************************************************************************
JDTDB
   X     Y     Z
   VX    VY    VZ
   LT    RG    RR
*******************************************************************************
$$SOE
2455332.894444444 = A.D. 2010-May-16 09:28:00.0000 TDB 
 X =-8.616004208197188E+07 Y =-1.243202236984078E+08 Z = 3.087530435763299E+03
 VX= 2.401138455339894E+01 VY=-1.708163898330116E+01 VZ= 1.424604736331325E-03
 LT= 5.045433529319394E+02 RG= 1.512582919430276E+08 RR= 3.621043161807042E-01
2455333.894444444 = A.D. 2010-May-17 09:28:00.0000 TDB 
 X =-8.407322684349819E+07 Y =-1.257780852039692E+08 Z = 3.212797100521624E+03
 VX= 2.429321982579795E+01 VY=-1.666439089573073E+01 VZ= 1.464241497073360E-03
 LT= 5.046465851996006E+02 RG= 1.512892401982947E+08 RR= 3.543265959709965E-01
2455334.894444444 = A.D. 2010-May-18 09:28:00.0000 TDB 
 X =-8.196240000433068E+07 Y =-1.271997029071332E+08 Z = 3.338619146250188E+03
 VX= 2.456719910505556E+01 VY=-1.624271447270065E+01 VZ= 1.436952236925748E-03
 LT= 5.047476132314370E+02 RG= 1.513195276402858E+08 RR= 3.468280724515077E-01
2455335.894444444 = A.D. 2010-May-19 09:28:00.0000 TDB 
 X =-7.982824196496478E+07 Y =-1.285847077311862E+08 Z = 3.459154816895723E+03
 VX= 2.483329388153352E+01 VY=-1.581692176431825E+01 VZ= 1.342206679209035E-03
 LT= 5.048465339076382E+02 RG= 1.513491833129512E+08 RR= 3.397182133870452E-01
2455336.894444444 = A.D. 2010-May-20 09:28:00.0000 TDB 
 X =-7.767143318686482E+07 Y =-1.299327570053997E+08 Z = 3.568734682776034E+03
 VX= 2.509153032156152E+01 VY=-1.538730917496465E+01 VZ= 1.184499590482169E-03
 LT= 5.049434713856996E+02 RG= 1.513782444377715E+08 RR= 3.330755187755668E-01
2455337.894444444 = A.D. 2010-May-21 09:28:00.0000 TDB 
 X =-7.549264978269492E+07 Y =-1.312435324361594E+08 Z = 3.662281993888319E+03
 VX= 2.534198122204483E+01 VY=-1.495414237751305E+01 VZ= 9.729502150008784E-04
 LT= 5.050385672218478E+02 RG= 1.514067534522360E+08 RR= 3.269415624941318E-01
2455338.894444444 = A.D. 2010-May-22 09:28:00.0000 TDB 
 X =-7.329255997326985E+07 Y =-1.325167369380129E+08 Z = 3.735679727777839E+03
 VX= 2.558475430307636E+01 VY=-1.451764510062068E+01 VZ= 7.204943269236708E-04
 LT= 5.051319693200232E+02 RG= 1.514347546968303E+08 RR= 3.213187117299134E-01
2455339.894444444 = A.D. 2010-May-23 09:28:00.0000 TDB 
 X =-7.107182165678361E+07 Y =-1.337520906718899E+08 Z = 3.786055117487907E+03
 VX= 2.581997836141676E+01 VY=-1.407799198313468E+01 VZ= 4.427992161035732E-04
 LT= 5.052238206735678E+02 RG= 1.514622910398801E+08 RR= 3.161708717689958E-01
2455340.894444444 = A.D. 2010-May-24 09:28:00.0000 TDB 
 X =-6.883108123332348E+07 Y =-1.349493266420875E+08 Z = 3.811961433462799E+03
 VX= 2.604778817798170E+01 VY=-1.363530553860689E+01 VZ= 1.569803204146680E-04
 LT= 5.053142487108686E+02 RG= 1.514894006834546E+08 RR= 3.114269206467342E-01
2455341.894444444 = A.D. 2010-May-25 09:28:00.0000 TDB 
 X =-6.657097375945850E+07 Y =-1.361081862218487E+08 Z = 3.813442550145090E+03
 VX= 2.626830899034943E+01 VY=-1.318965763311116E+01 VZ=-1.198153972596927E-04
 LT= 5.054033560288000E+02 RG= 1.515161143853231E+08 RR= 3.069869403648060E-01
2455342.894444444 = A.D. 2010-May-26 09:28:00.0000 TDB 
 X =-6.429212441574819E+07 Y =-1.372284150211129E+08 Z = 3.791973240032792E+03
 VX= 2.648164192938546E+01 VY=-1.274107598141725E+01 VZ=-3.718435802726461E-04
 LT= 5.054912133375275E+02 RG= 1.515424533438598E+08 RR= 3.027312974932390E-01
2455343.894444444 = A.D. 2010-May-27 09:28:00.0000 TDB 
 X =-6.199515111675915E+07 Y =-1.383097595298879E+08 Z = 3.750281495504081E+03
 VX= 2.668785251754911E+01 VY=-1.228955547243933E+01 VZ=-5.860223333193915E-04
 LT= 5.055778553638935E+02 RG= 1.515684279699101E+08 RR= 2.985318956154729E-01
2455344.894444444 = A.D. 2010-May-28 09:28:00.0000 TDB 
 X =-5.968066790419069E+07 Y =-1.393519648989805E+08 Z = 3.692077540792525E+03
 VX= 2.688696433846419E+01 VY=-1.183507279872560E+01 VZ=-7.527983984267905E-04
 LT= 5.056632801198653E+02 RG= 1.515940376674769E+08 RR= 2.942639268415560E-01
2455345.894444444 = A.D. 2010-May-29 09:28:00.0000 TDB 
 X =-5.734928861950430E+07 Y =-1.403547740319884E+08 Z = 3.621730876892805E+03
 VX= 2.707895894006234E+01 VY=-1.137760166917612E+01 VZ=-8.664697675380140E-04
 LT= 5.057474513632655E+02 RG= 1.516192715714288E+08 RR= 2.898159049328110E-01
2455346.894444444 = A.D. 2010-May-30 09:28:00.0000 TDB 
 X =-5.500163033242937E+07 Y =-1.413179279082231E+08 Z = 3.543943636529148E+03
 VX= 2.726378133278919E+01 VY=-1.091712564073526E+01 VZ=-9.249616374500391E-04
 LT= 5.058303034688165E+02 RG= 1.516441100078024E+08 RR= 2.850961283754695E-01
2455347.894444444 = A.D. 2010-May-31 09:28:00.0000 TDB 
 X =-5.263831612510827E+07 Y =-1.422411668320371E+08 Z = 3.463462070234120E+03
 VX= 2.744134897718076E+01 VY=-1.045364650803540E+01 VZ=-9.292015615933735E-04
 LT= 5.059117475432257E+02 RG= 1.516685263270591E+08 RR= 2.800348391498610E-01
2455348.894444444 = A.D. 2010-Jun-01 09:28:00.0000 TDB 
 X =-5.025997704509099E+07 Y =-1.431242321901459E+08 Z = 3.384851281493902E+03
 VX= 2.761156160272248E+01 VY=-9.987187712075059E+00 VZ=-8.823195532445816E-04
 LT= 5.059916775921737E+02 RG= 1.516924887529013E+08 RR= 2.745825983446253E-01
2455349.894444444 = A.D. 2010-Jun-02 09:28:00.0000 TDB 
 X =-4.786725325796296E+07 Y =-1.439668683145596E+08 Z = 3.312338636159897E+03
 VX= 2.777430961212469E+01 VY=-9.517793598668941E+00 VZ=-7.888898397800936E-04
 LT= 5.060699758301754E+02 RG= 1.517159619741288E+08 RR= 2.687062208389391E-01
2455350.894444444 = A.D. 2010-Jun-03 09:28:00.0000 TDB 
 X =-4.546079458595064E+07 Y =-1.447688241578107E+08 Z = 3.249715222157538E+03
 VX= 2.792947975512946E+01 VY=-9.045526103397886E+00 VZ=-6.543632240436636E-04
 LT= 5.061465166543200E+02 RG= 1.517389083359365E+08 RR= 2.623838153800950E-01
2455351.894444444 = A.D. 2010-Jun-04 09:28:00.0000 TDB 
 X =-4.304126069079511E+07 Y =-1.455298546321585E+08 Z = 3.200275406040251E+03
 VX= 2.807695769081130E+01 VY=-8.570460556488355E+00 VZ=-4.847581090499098E-04
 LT= 5.062211692216210E+02 RG= 1.517612886125837E+08 RR= 2.556002413067835E-01
2455352.894444444 = A.D. 2010-Jun-05 09:28:00.0000 TDB 
 X =-4.060932116116758E+07 Y =-1.462497216017650E+08 Z = 3.166771593295038E+03
 VX= 2.821662772121491E+01 VY=-8.092682059333853E+00 VZ=-2.866141374968656E-04
 LT= 5.062937988934401E+02 RG= 1.517830624404221E+08 RR= 2.483439157146305E-01
2455353.894444444 = A.D. 2010-Jun-06 09:28:00.0000 TDB 
 X =-3.816565572201297E+07 Y =-1.469281946283056E+08 Z = 3.151362892881036E+03
 VX= 2.834837037149297E+01 VY=-7.612283565326644E+00 VZ=-6.717075786566440E-05
 LT= 5.063642680320250E+02 RG= 1.518041885566916E+08 RR= 2.406055953346241E-01
